#dP2024 10 21  0  0  0.00000000      96 __u+U IGS20 FIT  IAC
## 2337  86400.00000000   900.00000000 60604 0.0000000000000
+  132   C01C02C03C04C05C06C07C08C09C10C11C12C13C14C16C19C20
+        C21C22C23C24C25C26C27C28C29C30C32C33C34C35C36C37C38
+        C39C40C41C42C43C44C45C59C60C62E02E03E04E05E06E07E08
+        E09E10E11E12E13E14E15E18E19E21E24E25E26E27E29E30E31
+        E33E34E36G02G03G04G05G06G07G08G09G10G11G12G13G14G15
+        G16G17G18G19G20G21G22G23G24G25G26G27G28G29G30G31G32
+        J02J03J04J07R01R02R03R04R05R06R07R08R09R10R11R12R13
+        R14R15R16R17R18R19R20R21R22R23R24R25R26  0  0  0  0
++        16 16 16 16 16  9  9  9  9  9  9  9  9  9  9  7  7
++         7  7  6  7  7  7  7  7  7  7  7  7  7  7  7  7  7
++         8  8  7  7  7  7  7 17 16 16  4  4  4  4  4  4  4
++         4  4  4  4  4  4  4  4  4  4  4  4  4  4  4  4  4
++         4  4  4  4  4  4  3  4  4  3  3  4  4  4  3  4  4
++         4  4  3  4  4  4  4  4  4  4  4  4  4  4  3  4  4
++         9 10 10 17  7  6  6  6  6 15  6  6  6 16  6  6 15
++         6  6  6  6  6  8  7  6  6 15  6  8  8  0  0  0  0
%c M  cc GPS ccc cccc cccc cccc cccc ccccc ccccc ccccc ccccc
%c cc cc ccc ccc cccc cccc cccc cccc ccccc ccccc ccccc ccccc
%f  0.0000000  0.000000000  0.00000000000  0.000000000000000
%f  0.0000000  0.000000000  0.00000000000  0.000000000000000
%i    0    0    0    0      0      0      0      0         0
%i    0    0    0    0      0      0      0      0         0
/* INFORMATION & ANALYSIS CENTER (IAC)            RAPID DATA
/* S/V CLOCKS ARE ALIGNED TO GNSS TIME                      
/* G:C1WC2W R:C1PC2P E:C1XC5X C:C2IC6I J:C1CC2S             
/* PCV:IGS20_2317 OL/AL:FES2004  NONE     YN ORB:CoN CLK:CoN
*  2024 10 21 17  0  0.00000000
PC01 -34330.450034  24512.654083   -103.816113   -380.208324
PC02   4348.665630  41867.014593  -1975.338771    831.550510
PC03 -14781.522280  39455.454921   -618.665850    847.494477
PC04 -39643.504495  14455.884641    423.130261   -462.419398
PC05  21815.177132  36027.553850  -1505.006979   -273.647800
PC06   -419.685266  35230.509225 -22838.019330    349.514219
PC07 -13699.258178  27311.113406  29114.078744   -270.297900
PC08 -17163.264288  37839.334707  -7926.692370   -688.666561
PC09   4076.802633  37871.084910 -16842.196419   -511.559323
PC10  -4958.940702  28168.635581  31272.464625   -240.564093
PC11  11467.778083  21440.094708  13785.682303    204.744567
PC12  -7078.188284  14146.750347  23036.924099   -256.932143
PC13 -11302.859190  38215.086963 -14048.615158     95.211291
PC14   2424.619739  15731.916902 -22916.066147   -337.308518
PC16  -4207.019223  32108.137128 -26491.735145    164.713387
PC19 -12444.857949 -11091.041427  22388.920024   -952.178632
PC20   6356.387902 -17638.002478  20676.998675   -926.244212
PC21 -23278.978559  14084.133716  -6154.031889   -920.278213
PC22 -25385.883072   2251.363622  11331.440695    157.843466
PC23  15973.577202   3733.485285  22577.457264   -863.894398
PC24  -4632.994734  27491.894954  -1552.064785    792.315515
PC25   8446.960882  22086.447766  14823.851311    539.179291
PC26 -14078.857749  17145.675100 -16970.764681   -365.998562
PC27  15481.307976  -7589.020328 -21956.647730    385.492197
PC28  23724.761668   6684.491694 -13080.401748    299.473508
PC29 -19015.715803 -19305.270232  -6659.287104    351.639565
PC30  -1449.786340 -18865.286569 -20520.714974      5.899180
PC32  23249.004993 -14223.811560   6023.293373   -774.708934
PC33  12448.733750  11080.100129 -22392.998872   -956.198608
PC34   3227.671580  19495.118605  19691.003771    547.288604
PC35 -24144.569690  -6297.225264  12516.304334    229.311842
PC36  -8237.993865 -21910.163348 -15163.240565    207.065448
PC37  14506.353598 -16620.028296  17079.153287   -893.120929
PC38 -20229.460721  37101.588653    313.705097    186.575640
PC39  -6419.265190  29105.050555 -29671.599460    -10.171883
PC40 -19509.797543  20557.229924  31150.026380    -97.996171
PC41  25072.734866  -1664.671442 -12108.508112   -896.467682
PC42  -8267.837272  17874.363813 -19727.905767   -498.432441
PC43  18330.991629  19633.598033   7532.974823     89.690170
PC44 -15398.583636   8158.144665  21789.581024    629.098781
PC45 -15742.036121  -4336.967995 -22634.246137   -152.394090
PC59 -32321.635949  27051.382824  -1166.206911     -0.686958
PC60   7249.051202  41539.919009   -859.696635      0.336437
PC62 -39610.853367  14440.902459    518.988424      0.062222
PE02   4059.399228 -22967.979000 -18218.217618    168.681676
PE03  -5906.959578 -17675.305420  22981.963340   -148.369520
PE04  24665.724255  12708.497376 -10312.425265    -62.778562
PE05  15871.154609 -12134.260109  21836.131915   4794.867514
PE06  28712.772700   7098.536010  -1084.426473    -38.713164
PE07 -28585.536241   -755.956903  -7634.291155   -148.563388
PE08 -24167.424544 -13031.332648  11036.877524   -355.111998
PE09  28604.622440    881.060728   7579.299712   -634.294293
PE10  17638.941530  11820.446625 -20628.699277   -664.674309
PE11  16601.513070      3.637641 -24509.801899   1153.996688
PE12  16033.704202  20418.053643 -14210.870159  -1261.424118
PE13 -16672.418838   -686.293697  24456.917493    -25.980954
PE14 -23310.565821  -2592.296626   2462.982994    312.309232
PE15 -15801.767257 -20974.215410  13667.583111   -134.425841
PE18  31252.697332   -823.935059  -8808.606470    683.887771
PE19   3705.024257  17481.764698 -23598.102150    811.631929
PE21 -18983.663706  22633.839678   1901.104492   -623.766812
PE24  23256.154656  -8719.917403  16073.357787  -1055.316216
PE25  19230.176410 -22450.782698  -1459.851888     10.375626
PE26  -7604.155272  20065.721116  20403.867771   -234.334057
PE27 -23237.222106   8910.988805 -16030.689329   -483.693426
PE29 -15544.571181  12447.841918 -21914.585838    -39.444296
PE30 -13801.256338  -9909.027998 -24247.623339   -842.758758
PE31  13729.815261   9904.717819  24288.392070    -40.071757
PE33   5358.054725  28611.225213   5424.007386     15.887767
PE34  -5705.435275 -28604.523303  -4984.928390   -141.349144
PE36   7804.922826 -19589.390551 -20764.190407   -300.173172
PG02 -17640.015771  -4678.219954  19888.493557   -332.141208
PG03 -19753.059361   8285.641996  15465.041866    577.167525
PG04 -25756.874457     15.706601  -6781.719052    465.718678
PG05  13179.881015   7340.592599 -22043.391977   -190.512964
PG06   4298.723670  25128.928975   7317.835592    -55.131661
PG07 -10365.021662  12917.645653 -20133.257123    -25.775547
PG08 -25475.279792  -6566.644208  -5210.598564    391.108703
PG09 -20341.095051   8191.162366 -15123.817259    408.614997
PG10   7872.837896 -22378.090457  11803.820458   -166.614815
PG11  12728.149621  22259.577742  -7013.156308   -745.573595
PG12  19504.613150  -3368.011942  17405.683439   -546.702881
PG13  20041.667956  13868.579301 -11072.308987    682.515477
PG14 -11227.841237  22579.258815   8005.180035    522.554543
PG15  25934.119046   3703.039152  -5379.412930    218.406249
PG16  -9347.025335 -12357.051528 -21883.414718   -148.955200
PG17  -5151.936350  14496.344811  22078.908717    587.620839
PG18   9283.367176 -14379.700146 -20219.953270   -658.684771
PG19   6056.648172  16027.990099  20259.850640    553.276073
PG20   5823.424981  17573.978618 -19023.334744    369.459914
PG21 -18543.756581 -11375.487577  16328.107791     99.272354
PG22  -5493.548330  21382.268215  15387.376334    -72.990598
PG23  16595.744051 -20525.410948  -1419.674210    346.502825
PG24  18298.467182   7039.296176  17642.225925   -483.974391
PG25  19417.498550 -15728.903007   8255.568945    499.440486
PG26   -892.536830 -20796.228092 -16446.524451     50.074064
PG27 -18618.928273 -12867.438595 -14533.669993    -34.654782
PG28  -3620.288695 -24636.568870   9223.316683   -453.453922
PG29  22011.277118  -4977.591614 -14149.113353   -569.658779
PG30  -2979.534079  21739.072912 -14630.064889   -297.908914
PG31 -10760.435453 -23947.140977  -2535.029246   -223.043131
PG32   1682.155946 -15188.530797  21943.180530   -584.017145
PJ02 -29242.531442  30391.335552   7728.874626     -1.319524
PJ03 -26016.163453  23580.016817  28499.471901     -5.031838
PJ04 -33727.260545  21704.711038  -7973.972339     21.902229
PJ07 -25363.374287  33693.720890    -37.048317     -0.000286
PR01  12885.165190   6988.350194 -20882.575529    101.797048
PR02  24044.490461  -1023.568768  -8304.939510    -25.296558
PR03  21928.055739  -9176.161311   9203.010027    109.851786
PR04   8136.405186 -11661.882308  21193.615836    260.310643
PR05 -10107.370665  -8263.096991  21924.340771    139.495207
PR06 -24377.041442   2680.113353   7045.416172   -185.578028
PR07 -21788.196820   9269.966050  -9529.308548     93.392755
PR08  -7842.932831  11814.276201 -21160.397320     -6.395969
PR09 -11539.531054   -547.902941 -22717.582167    216.002302
PR10 -12715.765054  14931.285786 -16366.543410   -233.413838
PR11  -7450.045991  24386.090329     79.747904      8.759152
PR12   3246.288741  18072.947961  17735.787847     46.300097
PR13  10501.998528   3411.204040  22980.438848    -52.635230
PR14  12535.236779 -16624.394415  14762.483491     27.115668
PR15   6787.668881 -24524.827306  -1808.403718     74.725009
PR16  -3066.824019 -18189.373989 -17627.027530     30.113540
PR17   9999.889497  -4658.744997 -22987.771410    132.787429
PR18  -2990.467993 -16596.969712 -19131.882444    167.984591
PR19 -12813.426637 -20791.130021  -7333.937635   -295.693038
PR20 -17826.192852 -12171.339510  13632.156607   -120.770134
PR21 -10525.577120   3821.315988  22921.604166   -144.676105
PR22   3263.032418  17472.774938  18324.469453     14.193585
PR23  14760.430079  20299.707919   4569.297098   -136.236698
PR24  18510.654067  10759.746296 -13862.390806    -76.905408
PR25 -10088.160173   4903.633080  22917.791365    -89.392732
PR26  -9424.079564  11898.680122 -20480.490790   -530.553292
EOF
